start=new Date('2022-05-27T00:00:00.000Z').valueOf();
sats=[{"CLASSIFICATION_TYPE":"U","INCLINATION":"53.0542","REV_AT_EPOCH":"130","LAUNCH_DATE":"2021-03-24","EPOCH":"2022-05-26T22:00:00.999936","DECAY_DATE":null,"MEAN_MOTION":"15.06364506","TLE_LINE2":"2 47990  53.0542 334.1205 0001798  41.6411 124.3014 15.06364506  1305","OBJECT_NAME":"STARLINK-2307","OBJECT_TYPE":"PAYLOAD","EPHEMERIS_TYPE":"0","RA_OF_ASC_NODE":"334.1205","MEAN_ANOMALY":"124.3014","RCS_SIZE":"LARGE","TLE_LINE1":"1 47990U 21024P   22146.91667824  .00043174  00000-0  29024-2 0  9994","REF_FRAME":"TEME","ARG_OF_PERICENTER":"41.6411","PERIOD":"95.594","CENTER_NAME":"EARTH","MEAN_ELEMENT_THEORY":"SGP4","TIME_SYSTEM":"UTC","ELEMENT_SET_NO":"999","OBJECT_ID":"2021-024P","GP_ID":"204626023","SEMIMAJOR_AXIS":"6925.457","MEAN_MOTION_DOT":"0.00043174","SITE":"AFETR","MEAN_MOTION_DDOT":"0.0000000000000","BSTAR":"0.00290240000000","COUNTRY_CODE":"US","PERIAPSIS":"546.077","FILE":"3466271","NORAD_CAT_ID":"47990","APOAPSIS":"548.568","ECCENTRICITY":"0.00017980"},{"PERIOD":"95.594","CENTER_NAME":"EARTH","TLE_LINE1":"1 47991U 21024Q   22146.91667824 -.00001935  00000-0 -11111-3 0  9995","RCS_SIZE":"LARGE","ARG_OF_PERICENTER":"75.5987","REF_FRAME":"TEME","EPHEMERIS_TYPE":"0","OBJECT_TYPE":"PAYLOAD","MEAN_ANOMALY":"27.8394","RA_OF_ASC_NODE":"349.1430","OBJECT_NAME":"STARLINK-2279","MEAN_MOTION":"15.06377115","TLE_LINE2":"2 47991  53.0558 349.1430 0001368  75.5987  27.8394 15.06377115  1304","DECAY_DATE":null,"EPOCH":"2022-05-26T22:00:00.999936","REV_AT_EPOCH":"130","LAUNCH_DATE":"2021-03-24","INCLINATION":"53.0558","CLASSIFICATION_TYPE":"U","ECCENTRICITY":"0.00013680","APOAPSIS":"548.231","NORAD_CAT_ID":"47991","FILE":"3466271","COUNTRY_CODE":"US","PERIAPSIS":"546.336","BSTAR":"-0.00011111000000","MEAN_MOTION_DDOT":"0.0000000000000","SEMIMAJOR_AXIS":"6925.419","GP_ID":"204626273","SITE":"AFETR","MEAN_MOTION_DOT":"-0.00001935","OBJECT_ID":"2021-024Q","MEAN_ELEMENT_THEORY":"SGP4","ELEMENT_SET_NO":"999","TIME_SYSTEM":"UTC"},{"INCLINATION":"53.0551","CLASSIFICATION_TYPE":"U","LAUNCH_DATE":"2021-03-24","REV_AT_EPOCH":"130","EPOCH":"2022-05-26T22:00:00.999936","DECAY_DATE":null,"TLE_LINE2":"2 47992  53.0551 344.1346 0001771  49.0884 346.9396 15.06395330  1305","MEAN_MOTION":"15.06395330","OBJECT_NAME":"STARLINK-2229","RA_OF_ASC_NODE":"344.1346","MEAN_ANOMALY":"346.9396","OBJECT_TYPE":"PAYLOAD","EPHEMERIS_TYPE":"0","TLE_LINE1":"1 47992U 21024R   22146.91667824 -.00013793  00000-0 -90898-3 0  9990","RCS_SIZE":"LARGE","ARG_OF_PERICENTER":"49.0884","REF_FRAME":"TEME","CENTER_NAME":"EARTH","PERIOD":"95.592","TIME_SYSTEM":"UTC","ELEMENT_SET_NO":"999","MEAN_ELEMENT_THEORY":"SGP4","OBJECT_ID":"2021-024R","MEAN_MOTION_DOT":"-0.00013793","SITE":"AFETR","GP_ID":"204627524","SEMIMAJOR_AXIS":"6925.363","MEAN_MOTION_DDOT":"0.0000000000000","BSTAR":"-0.00090898000000","PERIAPSIS":"546.001","COUNTRY_CODE":"US","FILE":"3466271","NORAD_CAT_ID":"47992","APOAPSIS":"548.454","ECCENTRICITY":"0.00017710"},{"PERIAPSIS":"545.942","COUNTRY_CODE":"US","FILE":"3466271","MEAN_MOTION_DDOT":"0.0000000000000","BSTAR":"0.00000761810000","ECCENTRICITY":"0.00018760","APOAPSIS":"548.540","NORAD_CAT_ID":"47993","OBJECT_ID":"2021-024S","MEAN_ELEMENT_THEORY":"SGP4","TIME_SYSTEM":"UTC","ELEMENT_SET_NO":"999","SEMIMAJOR_AXIS":"6925.376","GP_ID":"204627774","MEAN_MOTION_DOT":"-0.00000168","SITE":"AFETR","OBJECT_TYPE":"PAYLOAD","EPHEMERIS_TYPE":"0","RA_OF_ASC_NODE":"24.1008","MEAN_ANOMALY":"295.3673","OBJECT_NAME":"STARLINK-2273","PERIOD":"95.593","CENTER_NAME":"EARTH","REF_FRAME":"TEME","TLE_LINE1":"1 47993U 21024S   22146.92574736 -.00000168  00000-0  76181-5 0  9993","RCS_SIZE":"LARGE","ARG_OF_PERICENTER":"64.7510","REV_AT_EPOCH":"6670","LAUNCH_DATE":"2021-03-24","INCLINATION":"53.0570","CLASSIFICATION_TYPE":"U","MEAN_MOTION":"15.06391123","TLE_LINE2":"2 47993  53.0570  24.1008 0001876  64.7510 295.3673 15.06391123 66709","EPOCH":"2022-05-26T22:13:04.571904","DECAY_DATE":null},{"REV_AT_EPOCH":"6635","LAUNCH_DATE":"2021-03-24","CLASSIFICATION_TYPE":"U","INCLINATION":"53.0574","MEAN_MOTION":"15.06383118","TLE_LINE2":"2 47994  53.0574  41.4590 0001820  63.8035 296.3141 15.06383118 66350","DECAY_DATE":null,"EPOCH":"2022-05-26T09:34:44.293728","EPHEMERIS_TYPE":"0","OBJECT_TYPE":"PAYLOAD","MEAN_ANOMALY":"296.3141","RA_OF_ASC_NODE":"41.4590","OBJECT_NAME":"STARLINK-2290","PERIOD":"95.593","CENTER_NAME":"EARTH","ARG_OF_PERICENTER":"63.8035","TLE_LINE1":"1 47994U 21024T   22146.39912377  .00002010  00000-0  15388-3 0  9999","RCS_SIZE":"LARGE","REF_FRAME":"TEME","OBJECT_ID":"2021-024T","MEAN_ELEMENT_THEORY":"SGP4","ELEMENT_SET_NO":"999","TIME_SYSTEM":"UTC","SEMIMAJOR_AXIS":"6925.400","GP_ID":"204588811","SITE":"AFETR","MEAN_MOTION_DOT":"0.00002010","FILE":"3465646","PERIAPSIS":"546.005","COUNTRY_CODE":"US","BSTAR":"0.00015388000000","MEAN_MOTION_DDOT":"0.0000000000000","ECCENTRICITY":"0.00018200","APOAPSIS":"548.526","NORAD_CAT_ID":"47994"},{"OBJECT_TYPE":"PAYLOAD","EPHEMERIS_TYPE":"0","RA_OF_ASC_NODE":"8.6600","MEAN_ANOMALY":"246.8766","OBJECT_NAME":"STARLINK-2309","PERIOD":"95.704","CENTER_NAME":"EARTH","RCS_SIZE":"LARGE","TLE_LINE1":"1 47995U 21024U   22145.91716966  .00040491  00000-0  28533-2 0  9993","ARG_OF_PERICENTER":"113.2707","REF_FRAME":"TEME","REV_AT_EPOCH":"6678","LAUNCH_DATE":"2021-03-24","INCLINATION":"53.0543","CLASSIFICATION_TYPE":"U","MEAN_MOTION":"15.04632851","TLE_LINE2":"2 47995  53.0543   8.6600 0004603 113.2707 246.8766 15.04632851 66781","EPOCH":"2022-05-25T22:00:43.458624","DECAY_DATE":null,"PERIAPSIS":"549.445","COUNTRY_CODE":"US","FILE":"3465646","MEAN_MOTION_DDOT":"0.0000000000000","BSTAR":"0.00285330000000","ECCENTRICITY":"0.00046030","APOAPSIS":"555.825","NORAD_CAT_ID":"47995","OBJECT_ID":"2021-024U","MEAN_ELEMENT_THEORY":"SGP4","TIME_SYSTEM":"UTC","ELEMENT_SET_NO":"999","GP_ID":"204588561","SEMIMAJOR_AXIS":"6930.770","MEAN_MOTION_DOT":"0.00040491","SITE":"AFETR"},{"NORAD_CAT_ID":"47996","ECCENTRICITY":"0.00014950","APOAPSIS":"503.874","MEAN_MOTION_DDOT":"0.0000000000000","BSTAR":"-0.00478830000000","PERIAPSIS":"501.816","COUNTRY_CODE":"US","FILE":"3465883","GP_ID":"204598510","SEMIMAJOR_AXIS":"6880.980","MEAN_MOTION_DOT":"-0.00106282","SITE":"AFETR","MEAN_ELEMENT_THEORY":"SGP4","TIME_SYSTEM":"UTC","ELEMENT_SET_NO":"999","OBJECT_ID":"2021-024V","TLE_LINE1":"1 47996U 21024V   22146.86392231 -.00106282  00000-0 -47883-2 0  9996","RCS_SIZE":"LARGE","ARG_OF_PERICENTER":"70.8090","REF_FRAME":"TEME","PERIOD":"94.675","CENTER_NAME":"EARTH","OBJECT_NAME":"STARLINK-2260","OBJECT_TYPE":"PAYLOAD","EPHEMERIS_TYPE":"0","RA_OF_ASC_NODE":"290.5215","MEAN_ANOMALY":"289.3067","EPOCH":"2022-05-26T20:44:02.887584","DECAY_DATE":null,"MEAN_MOTION":"15.20993334","TLE_LINE2":"2 47996  53.0500 290.5215 0001495  70.8090 289.3067 15.20993334 67486","CLASSIFICATION_TYPE":"U","INCLINATION":"53.0500","REV_AT_EPOCH":"6748","LAUNCH_DATE":"2021-03-24"},{"OBJECT_ID":"2021-024W","TIME_SYSTEM":"UTC","ELEMENT_SET_NO":"999","MEAN_ELEMENT_THEORY":"SGP4","MEAN_MOTION_DOT":"0.00003827","SITE":"AFETR","GP_ID":"204627276","SEMIMAJOR_AXIS":"6925.351","PERIAPSIS":"546.077","COUNTRY_CODE":"US","FILE":"3466271","MEAN_MOTION_DDOT":"0.0000000000000","BSTAR":"0.00027568000000","APOAPSIS":"548.354","ECCENTRICITY":"0.00016440","NORAD_CAT_ID":"47997","LAUNCH_DATE":"2021-03-24","REV_AT_EPOCH":"6648","INCLINATION":"53.0547","CLASSIFICATION_TYPE":"U","TLE_LINE2":"2 47997  53.0547  39.4519 0001644  75.3707 284.7464 15.06399256 66482","MEAN_MOTION":"15.06399256","EPOCH":"2022-05-26T20:16:57.925632","DECAY_DATE":null,"RA_OF_ASC_NODE":"39.4519","MEAN_ANOMALY":"284.7464","OBJECT_TYPE":"PAYLOAD","EPHEMERIS_TYPE":"0","OBJECT_NAME":"STARLINK-2266","CENTER_NAME":"EARTH","PERIOD":"95.592","TLE_LINE1":"1 47997U 21024W   22146.84511488  .00003827  00000-0  27568-3 0  9990","RCS_SIZE":"LARGE","ARG_OF_PERICENTER":"75.3707","REF_FRAME":"TEME"},{"GP_ID":"204626024","SEMIMAJOR_AXIS":"6925.343","MEAN_MOTION_DOT":"-0.00003292","SITE":"AFETR","MEAN_ELEMENT_THEORY":"SGP4","TIME_SYSTEM":"UTC","ELEMENT_SET_NO":"999","OBJECT_ID":"2021-024X","NORAD_CAT_ID":"47998","APOAPSIS":"548.433","ECCENTRICITY":"0.00017680","MEAN_MOTION_DDOT":"0.0000000000000","BSTAR":"-0.00020217000000","COUNTRY_CODE":"US","PERIAPSIS":"545.984","FILE":"3466271","EPOCH":"2022-05-26T21:30:34.194240","DECAY_DATE":null,"MEAN_MOTION":"15.06401760","TLE_LINE2":"2 47998  53.0552  14.2286 0001768  60.2986 299.8179 15.06401760 66787","CLASSIFICATION_TYPE":"U","INCLINATION":"53.0552","REV_AT_EPOCH":"6678","LAUNCH_DATE":"2021-03-24","ARG_OF_PERICENTER":"60.2986","TLE_LINE1":"1 47998U 21024X   22146.89622910 -.00003292  00000-0 -20217-3 0  9991","RCS_SIZE":"LARGE","REF_FRAME":"TEME","PERIOD":"95.592","CENTER_NAME":"EARTH","OBJECT_NAME":"STARLINK-2296","OBJECT_TYPE":"PAYLOAD","EPHEMERIS_TYPE":"0","RA_OF_ASC_NODE":"14.2286","MEAN_ANOMALY":"299.8179"},{"DECAY_DATE":null,"EPOCH":"2022-05-26T22:00:00.999936","MEAN_MOTION":"15.06374191","TLE_LINE2":"2 47999  53.0524 344.1434 0001532  64.7258 191.3153 15.06374191 66737","CLASSIFICATION_TYPE":"U","INCLINATION":"53.0524","REV_AT_EPOCH":"6673","LAUNCH_DATE":"2021-03-24","ARG_OF_PERICENTER":"64.7258","TLE_LINE1":"1 47999U 21024Y   22146.91667824  .00033267  00000-0  22433-2 0  9992","RCS_SIZE":"LARGE","REF_FRAME":"TEME","PERIOD":"95.594","CENTER_NAME":"EARTH","OBJECT_NAME":"STARLINK-2218","EPHEMERIS_TYPE":"0","OBJECT_TYPE":"PAYLOAD","MEAN_ANOMALY":"191.3153","RA_OF_ASC_NODE":"344.1434","GP_ID":"204602198","SEMIMAJOR_AXIS":"6925.428","SITE":"AFETR","MEAN_MOTION_DOT":"0.00033267","MEAN_ELEMENT_THEORY":"SGP4","ELEMENT_SET_NO":"999","TIME_SYSTEM":"UTC","OBJECT_ID":"2021-024Y","NORAD_CAT_ID":"47999","ECCENTRICITY":"0.00015320","APOAPSIS":"548.354","BSTAR":"0.00224330000000","MEAN_MOTION_DDOT":"0.0000000000000","FILE":"3466023","PERIAPSIS":"546.232","COUNTRY_CODE":"US"}];
